{"type":"FeatureCollection","features":[{"type":"Feature","geometry":{"type":"Point","coordinates":[-122.90283329435489,48.7536290072019]},"properties":{"kind":"Restoration project","NAME":"Mud Bay","ISLAND":"Sucia","DATE":"2020","DESCRIPTION":"Salt marsh reconnected and forage fish spawning beach restored by removing nearly 300 linear feet of a low lying road and associated armoring, fill and culvert.","LINK":"https://sanjuans.org/mud-bay-wetland-and-beach-restoration-sucia/","HABITAT_TYPES":"Tidal Marsh Restoration, Beach Restoration, Wetland Restoration"}},{"type":"Feature","geometry":{"type":"Point","coordinates":[-122.9101922984154,48.694048451772034]},"properties":{"kind":"Restoration project","NAME":"Eastsound Waterfront Park","ISLAND":"Orcas","DATE":"In Progress","DESCRIPTION":"Beach and riparian restoration through removal of a derelict concrete structure, intertidal rock and debris cleanup, and shoreline planting. Set to be completed in Fall 2025.","LINK":"https://sanjuans.org/eastsound-waterfront-park-beach-restoration-orcas-in-progress/","HABITAT_TYPES":"Beach Restoration, Riparian Restoration"}},{"type":"Feature","geometry":{"type":"Point","coordinates":[-122.98096774938625,48.61084772840694]},"properties":{"kind":"Restoration project","NAME":"West Sound Beach","ISLAND":"Orcas","DATE":"2015","DESCRIPTION":"150 waterfront feet of pocket beach habitat restored by removing a large rock and creosote bulkhead.","LINK":"https://sanjuans.org/west-sound-beach-restoration-orcas/","HABITAT_TYPES":"Beach Restoration, Riparian Restoration, Eelgrass Restoration"}},{"type":"Feature","geometry":{"type":"Point","coordinates":[-123.0089028353001,48.584230826005054]},"properties":{"kind":"Restoration project","NAME":"Neck Point Coves","ISLAND":"Shaw","DATE":"2008","DESCRIPTION":"Two-acre wetland reconnected to marine waters through channel restoration and removal of fill.","LINK":"https://sanjuans.org/neck-point-wetland-restoration-shaw/","HABITAT_TYPES":"Tidal Marsh Restoration, Wetland Restoration"}},{"type":"Feature","geometry":{"type":"Point","coordinates":[-123.01159755767767,48.58158945324244]},"properties":{"kind":"Restoration project","NAME":"Neck Point","ISLAND":"Shaw","DATE":"In Progress","DESCRIPTION":"Consisting of 500 feet of a documented forage fish spawning site, this beach will be restored through removal of an unnecessary bulkhead as well as a cleanup of intertidal debris. Set to be completed in Fall 2025.","LINK":"https://sanjuans.org/neck-point-beach-restoration-shaw-in-progress/","HABITAT_TYPES":"Beach Restoration, Riparian Restoration"}},{"type":"Feature","geometry":{"type":"Point","coordinates":[-122.96796874594688,48.591123705859815]},"properties":{"kind":"Restoration project","NAME":"Broken Point","ISLAND":"Shaw","DATE":"2023","DESCRIPTION":"A 230-foot creosote wood bulkhead and associated rock and fill that extended well over the intertidal beach were removed to restore the historic beach, backshore habitat and improve water quality.","LINK":"https://sanjuans.org/broken-point-beach-habitat-restoration-shaw/","HABITAT_TYPES":"Beach Restoration, Wetland Restoration, Riparian Restoration"}},{"type":"Feature","geometry":{"type":"Point","coordinates":[-122.94492131581603,48.58041817426225]},"properties":{"kind":"Restoration project","NAME":"Smuggler's Cove Road","ISLAND":"Shaw","DATE":"2009","DESCRIPTION":"300 linear feet of shoreline, at a known surf smelt spawning beach, was improved by reducing the footprint of the road protection, removing unnatural large rock from the intertidal beach, and nourishing with sand and fine gravel.","LINK":"https://sanjuans.org/smugglers-cove-road-forage-fish-spawning-habitat-enhancement-shaw/","HABITAT_TYPES":"Beach Restoration"}},{"type":"Feature","geometry":{"type":"Point","coordinates":[-122.93313580627085,48.57348498497612]},"properties":{"kind":"Restoration project","NAME":"Blind Bay","ISLAND":"Shaw","DATE":"2017","DESCRIPTION":"600 waterfront feet of forage fish spawning habitat enhanced by intertidal rock and debris removal and beach nourishment (2017). 340 additional adjacent feet were enhanced in 2019.","LINK":"https://sanjuans.org/blind-bay-forage-fish-spawn-habitat-restoration-shaw/","HABITAT_TYPES":"Beach Restoration"}},{"type":"Feature","geometry":{"type":"Point","coordinates":[-122.81936452947244,48.554620952667534]},"properties":{"kind":"Restoration project","NAME":"Thatcher Bay","ISLAND":"Blakely","DATE":"2013","DESCRIPTION":"200 waterfront feet of subtidal and intertidal habitat restored at a known forage fish spawning beach by removing an outdated log handling facility and rebuilding an existing barge landing into a smaller footprint.","LINK":"https://sanjuans.org/thatcher-bay-nearshore-restoration-blakely/","HABITAT_TYPES":"Beach Restoration, Eelgrass Restoration"}},{"type":"Feature","geometry":{"type":"Point","coordinates":[-122.8840799565214,48.57100499220912]},"properties":{"kind":"Restoration project","NAME":"Upright Head","ISLAND":"Lopez","DATE":"In Progress","DESCRIPTION":"Documented forage fish spawning habitat restoration through removal of shoreline armor and concrete debris from the intertidal beach. Set to be completed in Fall 2026.","LINK":"https://sanjuans.org/upright-head-beach-restoration-lopez-in-progress/","HABITAT_TYPES":"Beach Restoration"}},{"type":"Feature","geometry":{"type":"Point","coordinates":[-122.87257725192204,48.553143702071935]},"properties":{"kind":"Restoration project","NAME":"Shoal Bay","ISLAND":"Lopez","DATE":"2009","DESCRIPTION":"Five-acre coastal lagoon habitat, water quality and fish passage improved by removing concrete tide gate and fill from the tide channel.","LINK":"https://sanjuans.org/shoal-bay-tide-channel-lagoon-restoration-lopez/","HABITAT_TYPES":"Tidal Marsh Restoration, Wetland Restoration"}},{"type":"Feature","geometry":{"type":"Point","coordinates":[-122.87554613621103,48.55294208115513]},"properties":{"kind":"Restoration project","NAME":"Shoal Bay","ISLAND":"Lopez","DATE":"2008","DESCRIPTION":"100 waterfront feet of forage fish beach spawning habitat restored by removing creosote and concrete.","LINK":"https://sanjuans.org/forage-fish-spawn-habitat-restoration-lopez/","HABITAT_TYPES":"Beach Restoration"}},{"type":"Feature","geometry":{"type":"Point","coordinates":[-122.9200573262657,48.51757013827732]},"properties":{"kind":"Restoration project","NAME":"Fisherman Bay","ISLAND":"Lopez","DATE":"2017","DESCRIPTION":"400 waterfront feet of salt marsh and tidal channel habitat restored through removal of outdated rock and wood ditches, dikes, and berms.","LINK":"https://sanjuans.org/fisherman-bay-marsh-and-beach-restoration-lopez/","HABITAT_TYPES":"Tidal Marsh Restoration, Beach Restoration, Wetland Restoration"}},{"type":"Feature","geometry":{"type":"Point","coordinates":[-122.86846431832444,48.43289440796457]},"properties":{"kind":"Restoration project","NAME":"Barlow Bay","ISLAND":"Lopez","DATE":"2013","DESCRIPTION":"Eelgrass and forage fish habitat restored by removing a derelict dock, including 1,200 square feet of overwater structure, 26 creosote pilings, pier decking, and 26 cubic yards of rock and fill.","LINK":"https://sanjuans.org/barlow-bay-eelgrass-forage-fish-spawn-habitat-restoration-lopez-island/","HABITAT_TYPES":"Beach Restoration, Eelgrass Restoration"}},{"type":"Feature","geometry":{"type":"Point","coordinates":[-122.8785294305625,48.43686304575453]},"properties":{"kind":"Restoration project","NAME":"Salmon Point","ISLAND":"Lopez","DATE":"2021","DESCRIPTION":"Critical habitat along a 430 foot long pocket beach is improved through shoreline plantings (2020) and removal of degraded rock armoring and concrete/rock debris.","LINK":"https://sanjuans.org/salmon-point-forage-fish-spawn-habitat-restoration-lopez/","HABITAT_TYPES":"Beach Restoration, Riparian Restoration"}},{"type":"Feature","geometry":{"type":"Point","coordinates":[-122.97506417628662,48.52710816948219]},"properties":{"kind":"Restoration project","NAME":"Turn Point","ISLAND":"San Juan","DATE":"2009","DESCRIPTION":"200 waterfront feet of beach and salt marsh habitat restored by removing an unnecessary rock bulkhead.","LINK":"https://sanjuans.org/turn-point-marsh-and-beach-restoration-san-juan/","HABITAT_TYPES":"Beach Restoration, Wetland Restoration"}},{"type":"Feature","geometry":{"type":"Point","coordinates":[-123.00069886674798,48.53530248266804]},"properties":{"kind":"Restoration project","NAME":"Brown Island","ISLAND":"Brown","DATE":"2015","DESCRIPTION":"250 waterfront feet of bluff and beach restored by removing an unnecessary rock bulkhead.","LINK":"https://sanjuans.org/beach-and-bluff-restoration-brown-island/","HABITAT_TYPES":"Beach Restoration, Riparian Restoration"}},{"type":"Feature","geometry":{"type":"Point","coordinates":[-123.12215397092375,48.62197091039792]},"properties":{"kind":"Riparian project","NAME":"Kline","ISLAND":"San Juan","DATE":"","DESCRIPTION":"","LINK":"","HABITAT_TYPES":"Riparian Restoration"}},{"type":"Feature","geometry":{"type":"Point","coordinates":[-122.87509333431709,48.54321189993023]},"properties":{"kind":"In/over-water structure project","NAME":"Mooring Buoy Upgrade","ISLAND":"Lopez","DATE":"","DESCRIPTION":"","LINK":"https://sanjuans.org/buoy-upgrade-program/","HABITAT_TYPES":"Eelgrass Restoration","AMOUNT":"1"}},{"type":"Feature","geometry":{"type":"Point","coordinates":[-122.94024451183678,48.49949728587094]},"properties":{"kind":"In/over-water structure project","NAME":"Mooring Buoy Upgrade","ISLAND":"Lopez","DATE":"","DESCRIPTION":"","LINK":"https://sanjuans.org/buoy-upgrade-program/","HABITAT_TYPES":"Eelgrass Restoration","AMOUNT":"1"}},{"type":"Feature","geometry":{"type":"Point","coordinates":[-123.19665019121862,48.68186260008543]},"properties":{"kind":"In/over-water structure project","NAME":"Mooring Buoy Upgrade","ISLAND":"Satellite","DATE":"","DESCRIPTION":"","LINK":"https://sanjuans.org/buoy-upgrade-program/","HABITAT_TYPES":"Eelgrass Restoration","AMOUNT":"1"}},{"type":"Feature","geometry":{"type":"Point","coordinates":[-122.95270652799417,48.69252620231643]},"properties":{"kind":"In/over-water structure project","NAME":"Mooring Buoy Upgrade","ISLAND":"Orcas","DATE":"","DESCRIPTION":"","LINK":"https://sanjuans.org/buoy-upgrade-program/","HABITAT_TYPES":"Eelgrass Restoration","AMOUNT":"3"}},{"type":"Feature","geometry":{"type":"Point","coordinates":[-122.93901010542314,48.58328565195674]},"properties":{"kind":"In/over-water structure project","NAME":"Mooring Buoy Upgrade","ISLAND":"Shaw","DATE":"","DESCRIPTION":"","LINK":"https://sanjuans.org/buoy-upgrade-program/","HABITAT_TYPES":"Eelgrass Restoration","AMOUNT":"1"}},{"type":"Feature","geometry":{"type":"Point","coordinates":[-122.85700061097852,48.45887028106456]},"properties":{"kind":"In/over-water structure project","NAME":"Mooring Buoy Upgrade","ISLAND":"Lopez","DATE":"","DESCRIPTION":"","LINK":"https://sanjuans.org/buoy-upgrade-program/","HABITAT_TYPES":"Eelgrass Restoration","AMOUNT":"1"}},{"type":"Feature","geometry":{"type":"Point","coordinates":[-122.8489497647874,48.45266757805963]},"properties":{"kind":"In/over-water structure project","NAME":"Mooring Buoy Upgrade","ISLAND":"Lopez","DATE":"","DESCRIPTION":"","LINK":"https://sanjuans.org/buoy-upgrade-program/","HABITAT_TYPES":"Eelgrass Restoration","AMOUNT":"1"}},{"type":"Feature","geometry":{"type":"Point","coordinates":[-122.81234464287371,48.431615495429554]},"properties":{"kind":"In/over-water structure project","NAME":"Mooring Buoy Upgrade","ISLAND":"Lopez","DATE":"","DESCRIPTION":"","LINK":"https://sanjuans.org/buoy-upgrade-program/","HABITAT_TYPES":"Eelgrass Restoration","AMOUNT":"3"}},{"type":"Feature","geometry":{"type":"Point","coordinates":[-122.9112936085631,48.55033069586026]},"properties":{"kind":"In/over-water structure project","NAME":"Mooring Buoy Upgrade","ISLAND":"Lopez","DATE":"","DESCRIPTION":"","LINK":"https://sanjuans.org/buoy-upgrade-program/","HABITAT_TYPES":"Eelgrass Restoration","AMOUNT":"1"}},{"type":"Feature","geometry":{"type":"Point","coordinates":[-122.91750338601844,48.522071117671636]},"properties":{"kind":"In/over-water structure project","NAME":"Over-water Structure Removal","ISLAND":"Lopez","DATE":"","DESCRIPTION":"","LINK":"","HABITAT_TYPES":"Eelgrass Restoration","AMOUNT":"1,760 sqft"}},{"type":"Feature","geometry":{"type":"Point","coordinates":[-122.91377094895223,48.51294326134406]},"properties":{"kind":"In/over-water structure project","NAME":"Over-water Structure Removal","ISLAND":"Lopez","DATE":"","DESCRIPTION":"","LINK":"","HABITAT_TYPES":"Eelgrass Restoration","AMOUNT":"1,500 sqft"}},{"type":"Feature","geometry":{"type":"Point","coordinates":[-122.9157295935817,48.51060202518355]},"properties":{"kind":"In/over-water structure project","NAME":"Piling Removal","ISLAND":"Lopez","DATE":"","DESCRIPTION":"","LINK":"","HABITAT_TYPES":"Eelgrass Restoration","AMOUNT":"35"}},{"type":"Feature","geometry":{"type":"Point","coordinates":[-122.82085199378963,48.551589822413426]},"properties":{"kind":"In/over-water structure project","NAME":"Piling Removal","ISLAND":"Blakely","DATE":"","DESCRIPTION":"","LINK":"","HABITAT_TYPES":"Eelgrass Restoration","AMOUNT":"28"}},{"type":"Feature","geometry":{"type":"Point","coordinates":[-122.8832590684898,48.67675775132852]},"properties":{"kind":"In/over-water structure project","NAME":"Piling Removal","ISLAND":"Orcas","DATE":"","DESCRIPTION":"","LINK":"","HABITAT_TYPES":"Eelgrass Restoration","AMOUNT":"2"}},{"type":"Feature","geometry":{"type":"Point","coordinates":[-122.86524833861274,48.55620139491627]},"properties":{"kind":"In/over-water structure project","NAME":"Piling Removal","ISLAND":"Lopez","DATE":"","DESCRIPTION":"","LINK":"","HABITAT_TYPES":"Eelgrass Restoration","AMOUNT":"2"}},{"type":"Feature","geometry":{"type":"Point","coordinates":[-122.92076525928915,48.51982172987777]},"properties":{"kind":"In/over-water structure project","NAME":"Piling Removal","ISLAND":"Lopez","DATE":"","DESCRIPTION":"","LINK":"","HABITAT_TYPES":"Eelgrass Restoration","AMOUNT":"4"}},{"type":"Feature","geometry":{"type":"Point","coordinates":[-123.18584046354412,48.58963724541376]},"properties":{"kind":"In/over-water structure project","NAME":"Over-water Structure Removal","ISLAND":"Henry","DATE":"","DESCRIPTION":"","LINK":"","HABITAT_TYPES":"Eelgrass Restoration","AMOUNT":"750 sqft"}},{"type":"Feature","geometry":{"type":"Point","coordinates":[-122.92341641753852,48.50503222265713]},"properties":{"kind":"In/over-water structure project","NAME":"Piling Removal","ISLAND":"Lopez","DATE":"","DESCRIPTION":"","LINK":"","HABITAT_TYPES":"Eelgrass Restoration","AMOUNT":"4"}},{"type":"Feature","geometry":{"type":"Point","coordinates":[-122.92170290449367,48.68490358042579]},"properties":{"kind":"In/over-water structure project","NAME":"Over-water Structure Removal","ISLAND":"Orcas","DATE":"","DESCRIPTION":"","LINK":"","HABITAT_TYPES":"Eelgrass Restoration"}},{"type":"Feature","geometry":{"type":"Point","coordinates":[-122.93212816567348,48.574994588159534]},"properties":{"kind":"In/over-water structure project","NAME":"Over-water Structure Removal","ISLAND":"Shaw","DATE":"","DESCRIPTION":"","LINK":"","HABITAT_TYPES":"Eelgrass Restoration"}},{"type":"Feature","geometry":{"type":"Point","coordinates":[-123.19388569108473,48.59114954521843]},"properties":{"kind":"In/over-water structure project","NAME":"Piling Removal","ISLAND":"Henry","DATE":"","DESCRIPTION":"","LINK":"","HABITAT_TYPES":"Eelgrass Restoration","AMOUNT":"9"}},{"type":"Feature","geometry":{"type":"Point","coordinates":[-122.91892939579454,48.690205486626894]},"properties":{"kind":"In/over-water structure project","NAME":"Piling Removal","ISLAND":"Orcas","DATE":"","DESCRIPTION":"","LINK":"","HABITAT_TYPES":"Eelgrass Restoration","AMOUNT":"8"}},{"type":"Feature","geometry":{"type":"LineString","coordinates":[[-122.93154941144982,48.57390674298944],[-122.93176470973563,48.57383743815247],[-122.93205489982883,48.57377529579785]]},"properties":{"kind":"Restoration site","NAME":"Shoreline restoration site","ISLAND":"Shaw","DATE":"2019","DESCRIPTION":"","LINK":"","HABITAT_TYPES":""}},{"type":"Feature","geometry":{"type":"LineString","coordinates":[[-122.94473079766834,48.57985412346478],[-122.94481185712957,48.579972556256905],[-122.94494682180378,48.58032108153616],[-122.94488454152128,48.5807119151285],[-122.94484732969774,48.580788116594576]]},"properties":{"kind":"Restoration site","NAME":"Shoreline restoration site","ISLAND":"Shaw","DATE":"2019","DESCRIPTION":"","LINK":"","HABITAT_TYPES":""}},{"type":"Feature","geometry":{"type":"LineString","coordinates":[[-122.96794344634817,48.59152666560896],[-122.96796598733758,48.59133209459946],[-122.96798046985424,48.59120707140159],[-122.96813309980449,48.59092844165701]]},"properties":{"kind":"Restoration site","NAME":"Shoreline restoration site","ISLAND":"Shaw","DATE":"2019","DESCRIPTION":"","LINK":"","HABITAT_TYPES":""}}]}